0 HEAD-1
1 43011U 17072B   19330.07081247 -.00000045  00000-0 -14787-6 0  9995
2 43011  98.7334 275.2853 0009459 264.2748  95.7354 14.26616500105704
0 HEAD-1
1 43011U 17072B   19330.77216927 -.00000046  00000-0 -48462-6 0  9995
2 43011  98.7335 275.9854 0009463 262.0655  97.9454 14.26616463105805
0 HEAD-1
1 43011U 17072B   19329.93054109 -.00000044 +00000-0 +16713-6 0  9994
2 43011 098.7333 275.1454 0009464 264.7367 095.2731 14.26616509105687
0 CZ-4C R/B
1 43012U 17072C   19330.65661871  .00000009  00000-0  13939-4 0  9991
2 43012  98.7031 308.3490 0126550 290.5371  68.2284 14.56062548107967
0 NOAA 20
1 43013U 17073A   19330.58416613  .00000001  00000-0  21321-4 0  9993
2 43013  98.7358 266.3865 0001004 103.5728 256.5560 14.19549253104737
0 NOAA 20
1 43013U 17073A   19329.80883580 -.00000012 +00000-0 +15201-4 0  9990
2 43013 098.7357 265.6216 0000977 103.8957 256.2328 14.19549198104628
0 BUCCANEER RMM
1 43014U 17073B   19329.46157996 +.00002899 +00000-0 +23691-3 0  9993
2 43014 097.7184 243.5697 0251361 000.0821 000.0389 14.78677429108841
0 BUCCANEER RMM
1 43014U 17073B   19330.00291868  .00002754  00000-0  22538-3 0  9991
2 43014  97.7184 244.0897 0251305 358.3222   1.7120 14.78679876108929
0 MIRATA
1 43015U 17073C   19329.88037133 +.00002028 +00000-0 +16238-3 0  9993
2 43015 097.7200 244.8625 0254653 356.0314 003.8874 14.79260590108976
0 MAKERSAT 0
1 43016U 17073D   19329.72146789 +.00001403 +00000-0 +11407-3 0  9994
2 43016 097.7234 244.9125 0257022 357.1528 002.8205 14.78937456108947
0 MAKERSAT 0
1 43016U 17073D   19330.73629894  .00001315  00000-0  10728-3 0  9997
2 43016  97.7235 245.8884 0256941 353.8473   5.9600 14.78939799109082
0 AO-91
1 43017U 17073E   19330.52227881  .00001113  00000-0  91989-4 0  9990
2 43017  97.7240 245.5899 0257711 354.9958   4.8683 14.78715527109022
0 EAGLESAT 1
1 43018U 17073F   19330.71611291  .00001675  00000-0  13432-3 0  9993
2 43018  97.7231 246.0325 0256049 353.2342   6.5435 14.79267103108931
0 ECAMSAT
1 43019U 98067NG  19330.76376063  .00007203  00000-0  83042-4 0  9994
2 43019  51.6406 242.9005 0004006   8.1402 351.9657 15.63156844200908
0 ECAMSAT
1 43019U 98067NG  19330.06052374  .00008453  00000-0  96474-4 0  9994
2 43019  51.6408 246.4536 0003996   5.6123 354.4915 15.63146746200799
0 ECAMSAT
1 43019U 98067NG  19330.31624654  .00008131  00000-0  93007-4 0  9990
2 43019  51.6406 245.1614 0003996   6.4751 353.6295 15.63151231200838
0 ASTERIA
1 43020U 98067NH  19330.68282094  .00040332  00000-0  22013-3 0  9997
2 43020  51.6395 213.0934 0001168  99.8427 260.2707 15.79475602115217
0 ASTERIA
1 43020U 98067NH  19330.05011782  .00051401  00000-0  27984-3 0  9993
2 43020  51.6397 216.3678 0001204 102.6951 257.4185 15.79422752115111
0 DELLINGR (RBLE)
1 43021U 98067NJ  19330.12652880  .00012968  00000-0  13027-3 0  9990
2 43021  51.6376 240.0472 0001827  32.1616 327.9491 15.65855935114807
0 DELLINGR (RBLE)
1 43021U 98067NJ  19330.25416883  .00012207  00000-0  12294-3 0  9996
2 43021  51.6375 239.3996 0001818  32.7981 327.3127 15.65858723114829
0 DELLINGR (RBLE)
1 43021U 98067NJ  19330.76472782  .00010480  00000-0  10629-3 0  9993
2 43021  51.6374 236.8095 0001836  34.6313 325.4801 15.65867864114903
0 JILIN-01-04
1 43022U 17074A   19330.84853090  .00000155  00000-0  13457-4 0  9998
2 43022  97.5319  63.2061 0006616 252.1340 203.2502 15.09811919110988
0 JILIN-01-04
1 43022U 17074A   19330.23962135  .00000250  00000-0  19379-4 0  9997
2 43022  97.5320  62.6075 0006607 253.8470 134.0101 15.09812320110893
0 JILIN-01-04
1 43022U 17074A   19330.51689407  .00000204  00000-0  16529-4 0  9999
2 43022  97.5320  62.8801 0006572 253.4029 200.5676 15.09812134110933
0 JILIN-01-05
1 43023U 17074B   19330.40021536  .00000765  00000-0  51261-4 0  9995
2 43023  97.5323  62.8778 0006928 265.8046 158.7295 15.09806901110915
0 JILIN-01-05
1 43023U 17074B   19330.74756094  .00000771  00000-0  51594-4 0  9992
2 43023  97.5323  63.2191 0006930 264.5929 246.6789 15.09807498110960
0 JILIN-01-05
1 43023U 17074B   19329.93545418 +.00000704 +00000-0 +47447-4 0  9995
2 43023 097.5322 062.4211 0006957 268.2111 151.7976 15.09805764110841
0 JILIN-01-05
1 43023U 17074B   19330.07946939  .00000752  00000-0  50415-4 0  9997
2 43023  97.5322  62.5627 0006920 267.2922 214.9902 15.09806301110863
0 JILIN-01-06
1 43024U 17074C   19330.09680402 -.00000044  00000-0  12054-5 0  9993
2 43024  97.5319  62.5252 0009693 272.2231 186.0391 15.09808027110861
0 CZ-6 R/B
1 43025U 17074D   19330.80568900  .00001717  00000-0  44014-4 0  9998
2 43025  97.5772  93.6243 0093079 283.0581  76.0285 15.36647648112861
0 YAOGAN-30 D
1 43028U 17075A   19330.80493799  .00000182  00000-0  21408-4 0  9992
2 43028  34.9987 260.6164 0001481 176.9608 183.1107 14.89699973109225
0 YAOGAN-30 D
1 43028U 17075A   19330.13473484  .00000187  00000-0  21921-4 0  9992
2 43028  34.9988 264.6191 0001449 169.6184 190.4561 14.89699733109120
0 YAOGAN-30 D
1 43028U 17075A   19330.53685666  .00000184  00000-0  21568-4 0  9997
2 43028  34.9987 262.2173 0001471 174.6114 185.4609 14.89699865109186
0 YAOGAN-30 E
1 43029U 17075B   19330.51538054  .00000195  00000-0  22775-4 0  9997
2 43029  34.9980 262.0052 0004419  75.7149 284.4047 14.89694249109174
0 YAOGAN-30 E
1 43029U 17075B   19330.11325663  .00000199  00000-0  23144-4 0  9998
2 43029  34.9981 264.4068 0004446  72.1238 287.9952 14.89694111109113
0 YAOGAN-30 F
1 43030U 17075C   19330.09061001  .00000183  00000-0  21501-4 0  9998
2 43030  34.9995 264.2883 0004421 269.6099  90.4098 14.89695172109097
0 YAOGAN-30 F
1 43030U 17075C   19330.49273355  .00000181  00000-0  21286-4 0  9997
2 43030  34.9995 261.8871 0004422 273.0718  86.9477 14.89695328109156
0 YAOGAN-30 F
1 43030U 17075C   19330.76081596  .00000184  00000-0  21600-4 0  9994
2 43030  34.9995 260.2860 0004413 275.5300  84.4901 14.89695471109199
0 YAOGAN-30 F
1 43030U 17075C   19329.95656958 +.00000187 +00000-0 +21941-4 0  9994
2 43030 034.9996 265.0890 0004410 268.5625 091.4614 14.89695168109074
0 CZ-2C R/B
1 43031U 17075D   19329.79658294 +.00000445 +00000-0 +23745-4 0  9993
2 43031 035.2119 113.9087 0101088 030.6306 330.0263 15.13702769110807
0 CZ-2C R/B
1 43031U 17075D   19330.12637239  .00000468  00000-0  24821-4 0  9999
2 43031  35.2120 111.8691 0101053  33.5567 327.1498 15.13703319110854
0 COSMOS 2524
1 43032U 17076A   19330.11495471  .00000410  00000-0  34874-3 0  9995
2 43032  67.1457 259.0864 0005294 236.1957 123.8624 13.96828998101080
0 COSMOS 2524
1 43032U 17076A   19329.90014924 +.00000399 +00000-0 +34073-3 0  9997
2 43032 067.1457 259.6088 0005290 235.5789 124.4786 13.96828712101053
0 COSMOS 2524
1 43032U 17076A   19330.40136166  .00000415  00000-0  35234-3 0  9996
2 43032  67.1458 258.3901 0005289 236.4273 123.6309 13.96829334101121
0 COSMOS 2524
1 43032U 17076A   19330.75937030  .00000420  00000-0  35556-3 0  9996
2 43032  67.1458 257.5198 0005290 236.3861 123.6723 13.96829727101175
0 LKW-1
1 43034U 17077A   19330.37655998  .00000885  00000-0  40112-4 0  9997
2 43034  97.3952  45.3486 0008162 243.6930 174.8778 15.23422227110100
0 LKW-1
1 43034U 17077A   19330.05519059  .00000788  00000-0  36053-4 0  9990
2 43034  97.3951  45.0318 0008161 244.7273 212.4791 15.23421037110057
0 LKW-1
1 43034U 17077A   19330.78041154  .00000884  00000-0  40064-4 0  9990
2 43034  97.3950  45.7461 0008208 242.1708 229.8319 15.23422970110166
0 LKW-1
1 43034U 17077A   19329.92618245 +.00000752 +00000-0 +34529-4 0  9998
2 43034 097.3950 044.9045 0008169 245.5803 224.5566 15.23420578110038
0 CZ-2D DEB
1 43035U 17077B   19329.42057645 +.00002878 +00000-0 +10727-3 0  9999
2 43035 097.2961 038.8032 0015795 007.9992 352.1496 15.28131768110103
0 CZ-2D DEB
1 43035U 17077B   19330.14087180  .00002721  00000-0  10158-3 0  9992
2 43035  97.2960  39.5086 0015725   5.4431 354.6976 15.28135729110216
0 CZ-2D DEB
1 43038U 17077E   19329.89854139 +.00004452 +00000-0 +13632-3 0  9994
2 43038 097.2705 042.0138 0035191 236.2158 123.5732 15.33727043110486
0 ALCOMSAT 1
1 43039U 17078A   19329.82111844 -.00000187 +00000-0 +00000-0 0  9992
2 43039 000.0047 203.4909 0002721 024.7782 107.0232 01.00270069007277
0 ALCOMSAT 1
1 43039U 17078A   19330.39537869 -.00000187  00000-0  00000+0 0  9994
2 43039   0.0096 172.8530 0002709  55.8440 313.8911  1.00269958  7278
0 AEROCUBE 7B
1 43042U 17071F   19329.88220933 +.00004345 +00000-0 +10923-3 0  9992
2 43042 051.6381 349.2650 0004904 024.2365 335.8850 15.42142423110795
0 AEROCUBE 7B
1 43042U 17071F   19330.14141847  .00004397  00000-0  11041-3 0  9998
2 43042  51.6383 347.9957 0004907  25.1316 334.9908 15.42145196110830
0 AEROCUBE 7C
1 43043U 17071G   19330.14172391  .00004382  00000-0  11014-3 0  9991
2 43043  51.6383 348.0125 0005169  28.8917 331.2354 15.42125644110806
0 AEROCUBE 7C
1 43043U 17071G   19329.88251149 +.00004312 +00000-0 +10855-3 0  9994
2 43043 051.6381 349.2818 0005164 028.0057 332.1205 15.42122814110764
0 LEMUR 2 YONGLIN
1 43045U 17071J   19329.47416857 +.00008511 +00000-0 +18010-3 0  9996
2 43045 051.6388 340.0131 0004436 021.3667 338.7505 15.45983437110904
0 LEMUR 2 YONGLIN
1 43045U 17071J   19330.05593782  .00008248  00000-0  17475-3 0  9996
2 43045  51.6385 337.1480 0004436  23.6190 336.5000 15.45993188110989
0 LEMUR 2 KEVIN
1 43046U 17071K   19329.85905673  .00006818  00000-0  15291-3 0  9994
2 43046  51.6391 341.8287 0004157  18.3427 341.7709 15.44613484110912
0 LEMUR 2 KEVIN
1 43046U 17071K   19329.85905673 +.00006818 +00000-0 +15291-3 0  9994
2 43046 051.6391 341.8287 0004157 018.3427 341.7709 15.44613484110912
